43257,IRIDIUM 150,2018,100.4,860.0,+,86.4,Active,1,LEO,USA,USA,Commercial/Government,Communications,Falcon,1 43257U 18030J   24339.04647356  .00000074  00000+0  19261-4 0  9992,2 43257  86.3983 164.6120 0001693  86.7204 273.4186 14.34218656349890,14.34218656,0.0001693,LEO
43258,IRIDIUM 143,2018,100.4,860.0,+,86.4,Active,1,LEO,USA,USA,Commercial/Government,Communications,Falcon,1 43258U 18030K   24339.51582418 -.00000013  00000+0 -11573-4 0  9995,2 43258  86.3992 164.4867 0001369  82.0530 278.0821 14.34217582349904,14.34217582,0.0001369,LEO
43478,IRIDIUM 161,2018,99.77,860.0,+,86.45,Active,1,LEO,USA,USA,Commercial/Government,Communications,Falcon,1 43478U 18047C   24338.69846990  .00001099  00000+0  32080-3 0  9991,2 43478  86.4477 322.7003 0002338  85.4664 274.6803 14.43268151344297,14.43268151,0.0002338,LEO
43479,IRIDIUM 152,2018,100.4,860.0,+,86.39,Active,1,LEO,USA,USA,Commercial/Government,Communications,Falcon,1 43479U 18047D   24339.00016082  .00000035  00000+0  54117-5 0  9995,2 43479  86.3946 322.4341 0002392  86.6752 273.4718 14.34218660342202,14.3421866,0.0002392,LEO
43480,IRIDIUM 147,2018,100.4,860.0,+,86.4,Active,1,LEO,USA,USA,Commercial/Government,Communications,Falcon,1 43480U 18047E   24339.49488459  .00000170  00000+0  53683-4 0  9997,2 43480  86.3948 322.2223 0002549  90.6444 269.5044 14.34215542342260,14.34215542,0.0002549,LEO
43481,IRIDIUM 110,2018,100.4,860.0,+,86.4,Active,1,LEO,USA,USA,Commercial/Government,Communications,Falcon,1 43481U 18047F   24339.50122742  .00000859  00000+0  29948-3 0  9990,2 43481  86.3951 322.2968 0002668  83.8677 276.2822 14.34216017342251,14.34216017,0.0002668,LEO
43482,IRIDIUM 162,2018,99.77,860.0,+,86.45,Active,1,LEO,USA,USA,Commercial/Government,Communications,Falcon,1 43482U 18047G   24339.03884164  .00001136  00000+0  33173-3 0  9996,2 43482  86.4467 322.4559 0002516  84.5637 275.5851 14.43282658344338,14.43282658,0.0002516,LEO
43569,IRIDIUM 160,2018,100.4,860.0,+,86.39,Active,1,LEO,USA,USA,Commercial/Government,Communications,Falcon,1 43569U 18061A   24338.81915032  .00000834  00000+0  29073-3 0  9990,2 43569  86.3947 290.9396 0002365  91.0422 269.1045 14.34218583333058,14.34218583,0.0002365,LEO
